{"epoch":1784902576,"count":18312,"objects":[{"id":"65642","name":"STARLINK-35109","type":"PAYLOAD","l1":"1 65642U 25210W   26204.55048356  .00010688  00000-0  32707-3 0  9998","l2":"2 65642  53.1590  33.0669 0000682  74.5280 285.5798 15.34394548 48571"}]}