[
  {
    "OBJECT_NAME": "STARLINK-35109",
    "OBJECT_ID": "2025-210W",
    "EPOCH": "2026-07-23T13:12:41.779584",
    "MEAN_MOTION": 15.34394548,
    "ECCENTRICITY": 0.00006819,
    "INCLINATION": 53.159,
    "RA_OF_ASC_NODE": 33.0669,
    "ARG_OF_PERICENTER": 74.528,
    "MEAN_ANOMALY": 285.5798,
    "EPHEMERIS_TYPE": 0,
    "CLASSIFICATION_TYPE": "U",
    "NORAD_CAT_ID": 65642,
    "ELEMENT_SET_NO": 999,
    "REV_AT_EPOCH": 4857,
    "BSTAR": 0.00032706921,
    "MEAN_MOTION_DOT": 0.00010688,
    "MEAN_MOTION_DDOT": 0
  }
]
